start=new Date('2023-05-28T00:00:00.000Z').valueOf();
sats=[{"REF_FRAME":"TEME","MEAN_MOTION":"15.69890444","FILE":"3918755","CENTER_NAME":"EARTH","ECCENTRICITY":"0.00033570","TLE_LINE1":"1 56490U 23064AU  23147.91667824  .00058619  00000-0  48655-3 0  9999","OBJECT_NAME":"STARLINK-5873","RCS_SIZE":"LARGE","NORAD_CAT_ID":"56490","EPOCH":"2023-05-27T22:00:00.999936","SEMIMAJOR_AXIS":"6737.347","TLE_LINE2":"2 56490  69.9985 196.9539 0003357 263.7934  94.2486 15.69890444  1291","MEAN_ELEMENT_THEORY":"SGP4","SITE":"AFWTR","PERIAPSIS":"356.951","OBJECT_ID":"2023-064AU","MEAN_MOTION_DDOT":"0.0000000000000","DECAY_DATE":null,"BSTAR":"0.00048655000000","GP_ID":"232638486","PERIOD":"91.726","ARG_OF_PERICENTER":"263.7934","COUNTRY_CODE":"US","TIME_SYSTEM":"UTC","CLASSIFICATION_TYPE":"U","EPHEMERIS_TYPE":"0","OBJECT_TYPE":"PAYLOAD","RA_OF_ASC_NODE":"196.9539","INCLINATION":"69.9985","MEAN_ANOMALY":"94.2486","REV_AT_EPOCH":"129","MEAN_MOTION_DOT":"0.00058619","LAUNCH_DATE":"2023-05-10","ELEMENT_SET_NO":"999","APOAPSIS":"361.474"},{"BSTAR":"0.00051301000000","DECAY_DATE":null,"MEAN_MOTION_DDOT":"0.0000000000000","OBJECT_ID":"2023-064AV","PERIAPSIS":"356.978","TIME_SYSTEM":"UTC","COUNTRY_CODE":"US","PERIOD":"91.726","ARG_OF_PERICENTER":"269.1595","GP_ID":"232638610","OBJECT_TYPE":"PAYLOAD","EPHEMERIS_TYPE":"0","CLASSIFICATION_TYPE":"U","APOAPSIS":"361.474","LAUNCH_DATE":"2023-05-10","ELEMENT_SET_NO":"999","MEAN_MOTION_DOT":"0.00061830","REV_AT_EPOCH":"129","MEAN_ANOMALY":"90.6729","INCLINATION":"69.9981","RA_OF_ASC_NODE":"196.9505","OBJECT_NAME":"STARLINK-5842","TLE_LINE1":"1 56491U 23064AV  23147.91667824  .00061830  00000-0  51301-3 0  9991","CENTER_NAME":"EARTH","ECCENTRICITY":"0.00033360","MEAN_MOTION":"15.69885709","FILE":"3918755","REF_FRAME":"TEME","RCS_SIZE":"LARGE","MEAN_ELEMENT_THEORY":"SGP4","TLE_LINE2":"2 56491  69.9981 196.9505 0003336 269.1595  90.6729 15.69885709  1299","EPOCH":"2023-05-27T22:00:00.999936","SEMIMAJOR_AXIS":"6737.361","NORAD_CAT_ID":"56491","SITE":"AFWTR"},{"SITE":"AFWTR","MEAN_ELEMENT_THEORY":"SGP4","NORAD_CAT_ID":"56492","SEMIMAJOR_AXIS":"6738.480","EPOCH":"2023-05-27T22:00:00.999936","TLE_LINE2":"2 56492  69.9986 196.9489 0003489 271.2908  89.9522 15.69494618  1306","RCS_SIZE":"LARGE","ECCENTRICITY":"0.00034890","CENTER_NAME":"EARTH","TLE_LINE1":"1 56492U 23064AW  23147.91667824  .00685538  00000-0  53438-2 0  9991","OBJECT_NAME":"STARLINK-5846","REF_FRAME":"TEME","FILE":"3918755","MEAN_MOTION":"15.69494618","MEAN_ANOMALY":"89.9522","REV_AT_EPOCH":"130","LAUNCH_DATE":"2023-05-10","MEAN_MOTION_DOT":"0.00685538","ELEMENT_SET_NO":"999","APOAPSIS":"362.696","INCLINATION":"69.9986","RA_OF_ASC_NODE":"196.9489","OBJECT_TYPE":"PAYLOAD","CLASSIFICATION_TYPE":"U","EPHEMERIS_TYPE":"0","COUNTRY_CODE":"US","TIME_SYSTEM":"UTC","GP_ID":"232638424","ARG_OF_PERICENTER":"271.2908","PERIOD":"91.749","MEAN_MOTION_DDOT":"0.0000000000000","DECAY_DATE":null,"BSTAR":"0.00534380000000","PERIAPSIS":"357.994","OBJECT_ID":"2023-064AW"},{"FILE":"3918755","MEAN_MOTION":"15.69873832","REF_FRAME":"TEME","OBJECT_NAME":"STARLINK-5841","ECCENTRICITY":"0.00037460","CENTER_NAME":"EARTH","TLE_LINE1":"1 56493U 23064AX  23147.91667824  .00082187  00000-0  67997-3 0  9999","RCS_SIZE":"LARGE","TLE_LINE2":"2 56493  69.9987 196.9458 0003746 268.0798  95.8532 15.69873832  1307","NORAD_CAT_ID":"56493","EPOCH":"2023-05-27T22:00:00.999936","SEMIMAJOR_AXIS":"6737.395","MEAN_ELEMENT_THEORY":"SGP4","SITE":"AFWTR","OBJECT_ID":"2023-064AX","PERIAPSIS":"356.736","BSTAR":"0.00067997000000","MEAN_MOTION_DDOT":"0.0000000000000","DECAY_DATE":null,"GP_ID":"232638548","ARG_OF_PERICENTER":"268.0798","PERIOD":"91.727","TIME_SYSTEM":"UTC","COUNTRY_CODE":"US","EPHEMERIS_TYPE":"0","CLASSIFICATION_TYPE":"U","OBJECT_TYPE":"PAYLOAD","INCLINATION":"69.9987","RA_OF_ASC_NODE":"196.9458","LAUNCH_DATE":"2023-05-10","ELEMENT_SET_NO":"999","MEAN_MOTION_DOT":"0.00082187","APOAPSIS":"361.784","MEAN_ANOMALY":"95.8532","REV_AT_EPOCH":"130"},{"OBJECT_NAME":"STARLINK-5530","TLE_LINE1":"1 56494U 23064AY  23147.91667824  .00063272  00000-0  52478-3 0  9992","CENTER_NAME":"EARTH","ECCENTRICITY":"0.00034420","MEAN_MOTION":"15.69888178","FILE":"3918755","REF_FRAME":"TEME","RCS_SIZE":"LARGE","MEAN_ELEMENT_THEORY":"SGP4","TLE_LINE2":"2 56494  69.9981 196.9506 0003442 269.5408  90.8845 15.69888178  1304","EPOCH":"2023-05-27T22:00:00.999936","SEMIMAJOR_AXIS":"6737.354","NORAD_CAT_ID":"56494","SITE":"AFWTR","BSTAR":"0.00052478000000","DECAY_DATE":null,"MEAN_MOTION_DDOT":"0.0000000000000","OBJECT_ID":"2023-064AY","PERIAPSIS":"356.900","TIME_SYSTEM":"UTC","COUNTRY_CODE":"US","PERIOD":"91.726","ARG_OF_PERICENTER":"269.5408","GP_ID":"232638238","OBJECT_TYPE":"PAYLOAD","EPHEMERIS_TYPE":"0","CLASSIFICATION_TYPE":"U","APOAPSIS":"361.538","LAUNCH_DATE":"2023-05-10","ELEMENT_SET_NO":"999","MEAN_MOTION_DOT":"0.00063272","REV_AT_EPOCH":"130","MEAN_ANOMALY":"90.8845","INCLINATION":"69.9981","RA_OF_ASC_NODE":"196.9506"},{"GP_ID":"232638362","ARG_OF_PERICENTER":"269.7945","PERIOD":"91.726","COUNTRY_CODE":"US","TIME_SYSTEM":"UTC","PERIAPSIS":"356.957","OBJECT_ID":"2023-064AZ","MEAN_MOTION_DDOT":"0.0000000000000","DECAY_DATE":null,"BSTAR":"0.00055990000000","INCLINATION":"69.9979","RA_OF_ASC_NODE":"196.9471","MEAN_ANOMALY":"92.4115","REV_AT_EPOCH":"130","LAUNCH_DATE":"2023-05-10","ELEMENT_SET_NO":"999","MEAN_MOTION_DOT":"0.00067555","APOAPSIS":"361.478","CLASSIFICATION_TYPE":"U","EPHEMERIS_TYPE":"0","OBJECT_TYPE":"PAYLOAD","RCS_SIZE":"LARGE","REF_FRAME":"TEME","FILE":"3918755","MEAN_MOTION":"15.69888767","CENTER_NAME":"EARTH","ECCENTRICITY":"0.00033550","TLE_LINE1":"1 56495U 23064AZ  23147.91667824  .00067555  00000-0  55990-3 0  9993","OBJECT_NAME":"STARLINK-5529","SITE":"AFWTR","NORAD_CAT_ID":"56495","SEMIMAJOR_AXIS":"6737.352","EPOCH":"2023-05-27T22:00:00.999936","TLE_LINE2":"2 56495  69.9979 196.9471 0003355 269.7945  92.4115 15.69888767  1306","MEAN_ELEMENT_THEORY":"SGP4"},{"SITE":"AFWTR","MEAN_ELEMENT_THEORY":"SGP4","NORAD_CAT_ID":"56496","EPOCH":"2023-05-27T22:00:00.999936","SEMIMAJOR_AXIS":"6737.326","TLE_LINE2":"2 56496  69.9984 196.9483 0003479 270.5946  92.1853 15.69897872  1307","RCS_SIZE":"LARGE","CENTER_NAME":"EARTH","ECCENTRICITY":"0.00034790","TLE_LINE1":"1 56496U 23064BA  23147.91667824  .00065477  00000-0  54265-3 0  9999","OBJECT_NAME":"STARLINK-5526","REF_FRAME":"TEME","MEAN_MOTION":"15.69897872","FILE":"3918755","MEAN_ANOMALY":"92.1853","REV_AT_EPOCH":"130","MEAN_MOTION_DOT":"0.00065477","LAUNCH_DATE":"2023-05-10","ELEMENT_SET_NO":"999","APOAPSIS":"361.535","INCLINATION":"69.9984","RA_OF_ASC_NODE":"196.9483","OBJECT_TYPE":"PAYLOAD","CLASSIFICATION_TYPE":"U","EPHEMERIS_TYPE":"0","COUNTRY_CODE":"US","TIME_SYSTEM":"UTC","GP_ID":"232638176","ARG_OF_PERICENTER":"270.5946","PERIOD":"91.726","MEAN_MOTION_DDOT":"0.0000000000000","DECAY_DATE":null,"BSTAR":"0.00054265000000","PERIAPSIS":"356.847","OBJECT_ID":"2023-064BA"},{"INCLINATION":"69.9983","RA_OF_ASC_NODE":"196.9457","MEAN_ANOMALY":"94.9786","REV_AT_EPOCH":"130","LAUNCH_DATE":"2023-05-10","ELEMENT_SET_NO":"999","MEAN_MOTION_DOT":"0.00081776","APOAPSIS":"361.680","CLASSIFICATION_TYPE":"U","EPHEMERIS_TYPE":"0","OBJECT_TYPE":"PAYLOAD","GP_ID":"232638301","ARG_OF_PERICENTER":"268.3786","PERIOD":"91.727","COUNTRY_CODE":"US","TIME_SYSTEM":"UTC","PERIAPSIS":"356.782","OBJECT_ID":"2023-064BB","MEAN_MOTION_DDOT":"0.0000000000000","DECAY_DATE":null,"BSTAR":"0.00067635000000","SITE":"AFWTR","NORAD_CAT_ID":"56497","SEMIMAJOR_AXIS":"6737.366","EPOCH":"2023-05-27T22:00:00.999936","TLE_LINE2":"2 56497  69.9983 196.9457 0003635 268.3786  94.9786 15.69883810  1301","MEAN_ELEMENT_THEORY":"SGP4","RCS_SIZE":"LARGE","REF_FRAME":"TEME","MEAN_MOTION":"15.69883810","FILE":"3918755","CENTER_NAME":"EARTH","ECCENTRICITY":"0.00036350","TLE_LINE1":"1 56497U 23064BB  23147.91667824  .00081776  00000-0  67635-3 0  9995","OBJECT_NAME":"STARLINK-5527"},{"SEMIMAJOR_AXIS":"6737.367","EPOCH":"2023-05-27T22:00:00.999936","NORAD_CAT_ID":"56498","TLE_LINE2":"2 56498  69.9977 196.9481 0003389 266.9417  94.6771 15.69883484  1301","MEAN_ELEMENT_THEORY":"SGP4","SITE":"AFWTR","REF_FRAME":"TEME","FILE":"3918755","MEAN_MOTION":"15.69883484","TLE_LINE1":"1 56498U 23064BC  23147.91667824  .00065191  00000-0  54063-3 0  9990","CENTER_NAME":"EARTH","ECCENTRICITY":"0.00033890","OBJECT_NAME":"STARLINK-5522","RCS_SIZE":"LARGE","CLASSIFICATION_TYPE":"U","EPHEMERIS_TYPE":"0","OBJECT_TYPE":"PAYLOAD","INCLINATION":"69.9977","RA_OF_ASC_NODE":"196.9481","REV_AT_EPOCH":"130","MEAN_ANOMALY":"94.6771","APOAPSIS":"361.516","MEAN_MOTION_DOT":"0.00065191","LAUNCH_DATE":"2023-05-10","ELEMENT_SET_NO":"999","PERIAPSIS":"356.949","OBJECT_ID":"2023-064BC","DECAY_DATE":null,"MEAN_MOTION_DDOT":"0.0000000000000","BSTAR":"0.00054063000000","PERIOD":"91.727","ARG_OF_PERICENTER":"266.9417","GP_ID":"232638487","COUNTRY_CODE":"US","TIME_SYSTEM":"UTC"},{"SEMIMAJOR_AXIS":"6733.143","EPOCH":"2023-05-27T21:02:48.402240","NORAD_CAT_ID":"56503","TLE_LINE2":"2 56503  43.0006   1.8589 0001753 267.5335  92.5332 15.71361215  3360","MEAN_ELEMENT_THEORY":"SGP4","SITE":"AFETR","REF_FRAME":"TEME","FILE":"3918755","MEAN_MOTION":"15.71361215","TLE_LINE1":"1 56503U 23065A   23147.87694910  .00013730  00000-0  10795-3 0  9995","ECCENTRICITY":"0.00017530","CENTER_NAME":"EARTH","OBJECT_NAME":"STARLINK-5775","RCS_SIZE":"LARGE","CLASSIFICATION_TYPE":"U","EPHEMERIS_TYPE":"0","OBJECT_TYPE":"PAYLOAD","INCLINATION":"43.0006","RA_OF_ASC_NODE":"1.8589","REV_AT_EPOCH":"336","MEAN_ANOMALY":"92.5332","APOAPSIS":"356.188","MEAN_MOTION_DOT":"0.00013730","LAUNCH_DATE":"2023-05-14","ELEMENT_SET_NO":"999","PERIAPSIS":"353.827","OBJECT_ID":"2023-065A","DECAY_DATE":null,"MEAN_MOTION_DDOT":"0.0000000000000","BSTAR":"0.00010795000000","ARG_OF_PERICENTER":"267.5335","PERIOD":"91.640","GP_ID":"232638611","COUNTRY_CODE":"US","TIME_SYSTEM":"UTC"}];
